{"type": "FeatureCollection", "features": [{"type": "Feature", "geometry": {"type": "MultiPolygon", "coordinates": [[[[-88.199844, 42.154253], [-88.200066, 42.168729], [-88.199825, 42.183223], [-88.199525, 42.197671], [-88.199437, 42.212485], [-88.199222, 42.226939], [-88.198834, 42.241535], [-88.198919, 42.255779], [-88.198692, 42.270448], [-88.198848, 42.28491], [-88.199035, 42.299437], [-88.199144, 42.314055], [-88.198934, 42.328599], [-88.19864, 42.343097], [-88.198627, 42.357617], [-88.198723, 42.372268], [-88.198874, 42.386599], [-88.199114, 42.401298], [-88.198581, 42.415473], [-88.198626, 42.430056], [-88.198675, 42.444658], [-88.198727, 42.459114], [-88.198998, 42.473613], [-88.199288, 42.488029], [-88.199558, 42.495087], [-88.179726, 42.495356], [-88.159616, 42.495549], [-88.140672, 42.495704], [-88.121228, 42.495747], [-88.101636, 42.495704], [-88.081894, 42.495739], [-88.062133, 42.495769], [-88.042323, 42.495516], [-88.022752, 42.49518], [-88.003059, 42.495162], [-87.981375, 42.494832], [-87.961858, 42.494953], [-87.942303, 42.494431], [-87.92266, 42.4942], [-87.902611, 42.493952], [-87.882951, 42.493678], [-87.863812, 42.493353], [-87.844629, 42.493046], [-87.825191, 42.492819], [-87.805551, 42.492607], [-87.802614, 42.492468], [-87.802634, 42.491818], [-87.802304, 42.490607], [-87.801889, 42.489642], [-87.801636, 42.488622], [-87.800855, 42.487576], [-87.800366, 42.485828], [-87.799346, 42.483217], [-87.799044, 42.482769], [-87.798985, 42.482184], [-87.798788, 42.481449], [-87.798944, 42.481153], [-87.798847, 42.480846], [-87.798792, 42.479807], [-87.798631, 42.478678], [-87.79856, 42.477496], [-87.79844, 42.475607], [-87.798146, 42.473994], [-87.797836, 42.472723], [-87.797278, 42.471387], [-87.797096, 42.470189], [-87.797141, 42.469011], [-87.797052, 42.468572], [-87.797156, 42.468257], [-87.797056, 42.467817], [-87.797249, 42.467404], [-87.797388, 42.467031], [-87.797518, 42.466022], [-87.79756, 42.464783], [-87.797639, 42.463591], [-87.79751, 42.462805], [-87.797677, 42.461942], [-87.797878, 42.46089], [-87.797866, 42.459609], [-87.79798, 42.457751], [-87.798154, 42.456924], [-87.798402, 42.453424], [-87.798805, 42.451013], [-87.79918, 42.450024], [-87.799421, 42.448865], [-87.799545, 42.448233], [-87.799767, 42.447845], [-87.800223, 42.446251], [-87.80042, 42.444799], [-87.800933, 42.443054], [-87.801112, 42.442423], [-87.801701, 42.441219], [-87.802033, 42.439987], [-87.802959, 42.438523], [-87.803362, 42.43581], [-87.80353, 42.43295], [-87.803589, 42.432695], [-87.803468, 42.432327], [-87.803498, 42.4279], [-87.80335, 42.426515], [-87.803249, 42.42509], [-87.802832, 42.42142], [-87.802973, 42.420378], [-87.803077, 42.418911], [-87.803334, 42.417143], [-87.803446, 42.413398], [-87.803406, 42.412348], [-87.803282, 42.411352], [-87.803273, 42.41009], [-87.803159, 42.407538], [-87.803257, 42.406321], [-87.803178, 42.40488], [-87.803438, 42.402368], [-87.803844, 42.398927], [-87.804395, 42.395343], [-87.804703, 42.391812], [-87.804601, 42.390255], [-87.804701, 42.38938], [-87.80495, 42.386438], [-87.805085, 42.38433], [-87.805341, 42.383463], [-87.806248, 42.383299], [-87.80775, 42.383722], [-87.808942, 42.383301], [-87.809892, 42.383347], [-87.810598, 42.383062], [-87.81218, 42.383072], [-87.812746, 42.383196], [-87.813163, 42.382992], [-87.813072, 42.382636], [-87.813752, 42.382353], [-87.813669, 42.382074], [-87.814224, 42.381745], [-87.813978, 42.381623], [-87.813185, 42.38153], [-87.812769, 42.381535], [-87.810831, 42.381153], [-87.810284, 42.382366], [-87.809372, 42.382907], [-87.80754, 42.382898], [-87.809425, 42.380638], [-87.809598, 42.379949], [-87.809887, 42.37938], [-87.809891, 42.378647], [-87.809808, 42.378238], [-87.80988, 42.377889], [-87.810266, 42.377611], [-87.81106, 42.376781], [-87.812017, 42.375963], [-87.812814, 42.374968], [-87.813989, 42.373452], [-87.814633, 42.372654], [-87.815446, 42.370916], [-87.815865, 42.369897], [-87.8159, 42.369087], [-87.815855, 42.368368], [-87.815881, 42.367459], [-87.815851, 42.366888], [-87.815701, 42.365181], [-87.815885, 42.364632], [-87.816107, 42.364382], [-87.815793, 42.364292], [-87.816742, 42.362898], [-87.816942, 42.362192], [-87.816777, 42.36149], [-87.814813, 42.361458], [-87.814819, 42.361342], [-87.819945, 42.361366], [-87.820955, 42.36168], [-87.822028, 42.362598], [-87.821926, 42.363578], [-87.821861, 42.36396], [-87.821633, 42.364461], [-87.821431, 42.364645], [-87.820629, 42.367789], [-87.820924, 42.367864], [-87.821102, 42.367715], [-87.821088, 42.367406], [-87.82298, 42.368375], [-87.823084, 42.368227], [-87.821786, 42.367124], [-87.821716, 42.36647], [-87.822021, 42.365865], [-87.822473, 42.366062], [-87.822754, 42.365818], [-87.822502, 42.365641], [-87.822257, 42.364747], [-87.822865, 42.364194], [-87.825197, 42.365449], [-87.825388, 42.365374], [-87.825297, 42.365153], [-87.823416, 42.364008], [-87.823216, 42.363537], [-87.823475, 42.363442], [-87.823613, 42.36265], [-87.823737, 42.361847], [-87.824074, 42.361742], [-87.823894, 42.360905], [-87.824041, 42.360397], [-87.823884, 42.35983], [-87.824952, 42.359462], [-87.824909, 42.35715], [-87.824702, 42.3571], [-87.82471, 42.356943], [-87.825819, 42.35552], [-87.825896, 42.352978], [-87.826093, 42.350912], [-87.826303, 42.34962], [-87.82649, 42.34897], [-87.826749, 42.347968], [-87.826649, 42.347212], [-87.826977, 42.346717], [-87.826886, 42.346041], [-87.827011, 42.345164], [-87.826772, 42.343902], [-87.826785, 42.343224], [-87.826832, 42.341186], [-87.826605, 42.340299], [-87.826793, 42.339318], [-87.826804, 42.338414], [-87.826958, 42.338031], [-87.826956, 42.337653], [-87.827335, 42.337358], [-87.827254, 42.336745], [-87.827999, 42.335273], [-87.82863, 42.33424], [-87.829547, 42.333212], [-87.829789, 42.332573], [-87.830252, 42.332191], [-87.830233, 42.331609], [-87.831015, 42.330746], [-87.831521, 42.330401], [-87.831415, 42.329879], [-87.831575, 42.329277], [-87.831478, 42.328841], [-87.831576, 42.328498], [-87.831491, 42.327855], [-87.831736, 42.327712], [-87.83163, 42.326741], [-87.831955, 42.326393], [-87.831963, 42.326349], [-87.831911, 42.325761], [-87.831985, 42.325167], [-87.832103, 42.32505], [-87.832151, 42.324436], [-87.831946, 42.324348], [-87.831749, 42.323144], [-87.831307, 42.322397], [-87.831202, 42.321707], [-87.831469, 42.321407], [-87.831186, 42.320676], [-87.831037, 42.320123], [-87.83105, 42.319746], [-87.830932, 42.319543], [-87.830989, 42.319191], [-87.830794, 42.318665], [-87.831181, 42.318508], [-87.83126, 42.318132], [-87.830973, 42.31791], [-87.831196, 42.317599], [-87.830644, 42.317093], [-87.831134, 42.316956], [-87.830979, 42.315254], [-87.829976, 42.313158], [-87.829254, 42.311903], [-87.829225, 42.311563], [-87.829976, 42.311816], [-87.831172, 42.311502], [-87.832113, 42.310666], [-87.832444, 42.309582], [-87.832171, 42.30922], [-87.832116, 42.3089], [-87.832905, 42.308969], [-87.833065, 42.308508], [-87.834237, 42.308703], [-87.834206, 42.309033], [-87.835884, 42.309315], [-87.835929, 42.309178], [-87.835424, 42.30903], [-87.835022, 42.308917], [-87.834749, 42.308528], [-87.833127, 42.308258], [-87.833086, 42.307943], [-87.832249, 42.307736], [-87.832655, 42.307067], [-87.832676, 42.306646], [-87.833728, 42.30553], [-87.833451, 42.30519], [-87.833183, 42.304762], [-87.833421, 42.304746], [-87.834286, 42.302031], [-87.834234, 42.30173], [-87.834337, 42.300706], [-87.834165, 42.300158], [-87.833824, 42.298936], [-87.833613, 42.298021], [-87.833419, 42.297933], [-87.833315, 42.297471], [-87.833256, 42.296867], [-87.833107, 42.296435], [-87.833039, 42.295881], [-87.83306, 42.295476], [-87.833148, 42.295367], [-87.832954, 42.295254], [-87.833167, 42.295039], [-87.83316, 42.294879], [-87.833628, 42.294707], [-87.83377, 42.294235], [-87.832977, 42.29164], [-87.83253, 42.290653], [-87.832387, 42.290265], [-87.83245, 42.289955], [-87.832606, 42.289196], [-87.832518, 42.288735], [-87.832327, 42.28774], [-87.832014, 42.286888], [-87.832119, 42.28671], [-87.831692, 42.285346], [-87.831573, 42.284752], [-87.830982, 42.283016], [-87.829972, 42.280804], [-87.829635, 42.279992], [-87.828576, 42.277217], [-87.82895, 42.277084], [-87.82894, 42.273739], [-87.828327, 42.271978], [-87.828588, 42.271957], [-87.82819, 42.27107], [-87.82848, 42.270923], [-87.828426, 42.269811], [-87.827927, 42.268507], [-87.826848, 42.267146], [-87.82628, 42.265297], [-87.825877, 42.264211], [-87.824643, 42.261542], [-87.823752, 42.26006], [-87.82159, 42.256913], [-87.820916, 42.255836], [-87.820553, 42.255197], [-87.820052, 42.254019], [-87.81988, 42.253471], [-87.819932, 42.253188], [-87.819545, 42.252067], [-87.819396, 42.251349], [-87.818842, 42.250509], [-87.81841, 42.24996], [-87.81832, 42.250019], [-87.818151, 42.249648], [-87.817724, 42.249083], [-87.817788, 42.249023], [-87.8175, 42.248529], [-87.817627, 42.248202], [-87.817518, 42.247821], [-87.817505, 42.247589], [-87.817288, 42.247211], [-87.817395, 42.247105], [-87.817054, 42.246475], [-87.817174, 42.24643], [-87.817084, 42.245886], [-87.816996, 42.245852], [-87.81676, 42.245333], [-87.817003, 42.24526], [-87.816531, 42.244691], [-87.816637, 42.244613], [-87.816319, 42.244154], [-87.816428, 42.244064], [-87.816089, 42.243384], [-87.816343, 42.243325], [-87.816285, 42.242831], [-87.816027, 42.24248], [-87.815758, 42.242107], [-87.815872, 42.241998], [-87.815532, 42.241214], [-87.815208, 42.240521], [-87.815038, 42.240022], [-87.814744, 42.239652], [-87.814705, 42.23942], [-87.814432, 42.239041], [-87.814549, 42.238966], [-87.814121, 42.238147], [-87.814256, 42.238105], [-87.814051, 42.237686], [-87.814159, 42.237654], [-87.813941, 42.236905], [-87.813733, 42.236612], [-87.813816, 42.23655], [-87.813586, 42.235957], [-87.813264, 42.23522], [-87.813173, 42.234822], [-87.812925, 42.234386], [-87.812739, 42.233948], [-87.812463, 42.23357], [-87.81258, 42.233475], [-87.812109, 42.232752], [-87.811964, 42.231896], [-87.811764, 42.231116], [-87.811549, 42.230372], [-87.811404, 42.22967], [-87.811214, 42.228951], [-87.81097, 42.22833], [-87.810875, 42.227993], [-87.810691, 42.22734], [-87.810462, 42.226847], [-87.810145, 42.226467], [-87.809672, 42.225957], [-87.809287, 42.225508], [-87.808922, 42.225117], [-87.808954, 42.225035], [-87.808824, 42.225025], [-87.808074, 42.224356], [-87.808095, 42.224238], [-87.807851, 42.224096], [-87.807621, 42.223779], [-87.806721, 42.222874], [-87.806551, 42.222271], [-87.805982, 42.221285], [-87.806064, 42.221275], [-87.80577, 42.220714], [-87.805517, 42.220309], [-87.805696, 42.220264], [-87.80532, 42.219595], [-87.805285, 42.219526], [-87.804627, 42.218693], [-87.804752, 42.218581], [-87.804352, 42.217829], [-87.804435, 42.217764], [-87.803821, 42.216844], [-87.803964, 42.216755], [-87.803493, 42.215899], [-87.80375, 42.215829], [-87.803234, 42.214967], [-87.803337, 42.214853], [-87.80311, 42.213996], [-87.803141, 42.213969], [-87.802737, 42.213081], [-87.802853, 42.213044], [-87.802724, 42.212268], [-87.802434, 42.211683], [-87.801811, 42.210677], [-87.801236, 42.209685], [-87.799272, 42.206988], [-87.798329, 42.205892], [-87.797119, 42.2042], [-87.796865, 42.20375], [-87.796603, 42.202523], [-87.796205, 42.201839], [-87.795743, 42.201271], [-87.795208, 42.20011], [-87.792967, 42.197622], [-87.792488, 42.197009], [-87.79166, 42.195987], [-87.791427, 42.195366], [-87.791465, 42.195179], [-87.790477, 42.194099], [-87.789528, 42.193229], [-87.788756, 42.192554], [-87.788301, 42.192065], [-87.787793, 42.191667], [-87.787629, 42.191695], [-87.786997, 42.190603], [-87.78721, 42.190386], [-87.787219, 42.190188], [-87.787094, 42.18985], [-87.78694, 42.18936], [-87.786629, 42.188752], [-87.786675, 42.188703], [-87.78632, 42.188208], [-87.785791, 42.187473], [-87.785148, 42.186825], [-87.784844, 42.186388], [-87.784476, 42.185988], [-87.784068, 42.185558], [-87.78406, 42.185451], [-87.78352, 42.184807], [-87.783094, 42.184363], [-87.782634, 42.183816], [-87.782242, 42.183485], [-87.781809, 42.183052], [-87.781674, 42.182819], [-87.781221, 42.182267], [-87.781272, 42.182141], [-87.780626, 42.18149], [-87.780151, 42.180632], [-87.779415, 42.179706], [-87.77886, 42.178795], [-87.77853, 42.178236], [-87.778204, 42.177802], [-87.777768, 42.177319], [-87.777261, 42.176573], [-87.776773, 42.175955], [-87.77619, 42.175429], [-87.775737, 42.174885], [-87.775184, 42.174337], [-87.775194, 42.174111], [-87.774298, 42.173222], [-87.774307, 42.173156], [-87.773589, 42.172518], [-87.773559, 42.172244], [-87.773154, 42.171707], [-87.772734, 42.171335], [-87.7728, 42.171228], [-87.772276, 42.170714], [-87.77184, 42.170368], [-87.771296, 42.169788], [-87.770657, 42.169128], [-87.76999, 42.168568], [-87.769716, 42.16828], [-87.769436, 42.167926], [-87.769016, 42.167394], [-87.76859, 42.166817], [-87.766967, 42.164361], [-87.766096, 42.162964], [-87.765108, 42.161564], [-87.763856, 42.159527], [-87.761484, 42.156131], [-87.760664, 42.154835], [-87.759947, 42.153614], [-87.758908, 42.152387], [-87.770018, 42.152407], [-87.789527, 42.152555], [-87.809096, 42.152667], [-87.828421, 42.152761], [-87.828632, 42.152763], [-87.828828, 42.152767], [-87.848209, 42.152867], [-87.86744, 42.152947], [-87.867705, 42.15295], [-87.86794, 42.15295], [-87.88739, 42.152985], [-87.906993, 42.15308], [-87.926524, 42.153245], [-87.94621, 42.153422], [-87.96562, 42.153519], [-87.985048, 42.153651], [-88.004466, 42.153574], [-88.024139, 42.153678], [-88.043441, 42.153772], [-88.062864, 42.153765], [-88.082411, 42.153867], [-88.101833, 42.153923], [-88.121565, 42.154001], [-88.141304, 42.154142], [-88.160852, 42.154204], [-88.180689, 42.15421], [-88.199844, 42.154253]]]]}, "properties": {"name": "Lake", "co_fips": 97, "cartodb_id": 16, "created_at": "2014-12-26T02:19:38Z", "updated_at": "2014-12-26T02:21:22Z"}}, {"type": "Feature", "geometry": {"type": "MultiPolygon", "coordinates": [[[[-88.238571, 42.15424], [-88.219371, 42.154208], [-88.219196, 42.154208], [-88.199844, 42.154253], [-88.180689, 42.15421], [-88.160852, 42.154204], [-88.141304, 42.154142], [-88.121565, 42.154001], [-88.101833, 42.153923], [-88.082411, 42.153867], [-88.062864, 42.153765], [-88.043441, 42.153772], [-88.024139, 42.153678], [-88.004466, 42.153574], [-87.985048, 42.153651], [-87.96562, 42.153519], [-87.94621, 42.153422], [-87.926524, 42.153245], [-87.906993, 42.15308], [-87.88739, 42.152985], [-87.86794, 42.15295], [-87.867705, 42.15295], [-87.86744, 42.152947], [-87.848209, 42.152867], [-87.828828, 42.152767], [-87.828632, 42.152763], [-87.828421, 42.152761], [-87.809096, 42.152667], [-87.789527, 42.152555], [-87.770018, 42.152407], [-87.758908, 42.152387], [-87.758981, 42.152313], [-87.758812, 42.152118], [-87.758325, 42.151452], [-87.757822, 42.150839], [-87.757399, 42.150439], [-87.757522, 42.150289], [-87.757257, 42.149784], [-87.756799, 42.149303], [-87.7562, 42.1487], [-87.755988, 42.148314], [-87.755683, 42.147912], [-87.755528, 42.147596], [-87.7553, 42.147248], [-87.75505, 42.14676], [-87.754734, 42.146229], [-87.754261, 42.14563], [-87.753907, 42.145137], [-87.754057, 42.144908], [-87.753186, 42.144102], [-87.752575, 42.143371], [-87.752855, 42.143306], [-87.752185, 42.142555], [-87.75161, 42.141888], [-87.751131, 42.141374], [-87.751225, 42.141296], [-87.751151, 42.141038], [-87.750458, 42.140342], [-87.749432, 42.139046], [-87.748966, 42.138466], [-87.748123, 42.137699], [-87.748717, 42.137343], [-87.747684, 42.136216], [-87.747074, 42.135584], [-87.746652, 42.135013], [-87.746379, 42.134695], [-87.746034, 42.13417], [-87.745681, 42.133771], [-87.745895, 42.133661], [-87.745252, 42.133199], [-87.74453, 42.132624], [-87.74377, 42.131825], [-87.743879, 42.131761], [-87.743483, 42.131328], [-87.743356, 42.130915], [-87.742935, 42.130444], [-87.742955, 42.130124], [-87.742613, 42.129615], [-87.742225, 42.129017], [-87.74182, 42.128474], [-87.741592, 42.127985], [-87.741502, 42.127626], [-87.740935, 42.127218], [-87.740418, 42.126439], [-87.739935, 42.125961], [-87.73994, 42.125746], [-87.739702, 42.125368], [-87.739361, 42.124963], [-87.739262, 42.124921], [-87.739179, 42.124702], [-87.738627, 42.124294], [-87.738147, 42.123405], [-87.737681, 42.122792], [-87.736846, 42.122047], [-87.736009, 42.120928], [-87.736065, 42.120769], [-87.735659, 42.120553], [-87.735206, 42.120051], [-87.734615, 42.119733], [-87.73404, 42.119188], [-87.733739, 42.118663], [-87.733196, 42.118192], [-87.731768, 42.117179], [-87.731774, 42.117256], [-87.730764, 42.116387], [-87.730457, 42.11624], [-87.729867, 42.11641], [-87.729575, 42.116125], [-87.730516, 42.115519], [-87.730859, 42.115273], [-87.730127, 42.114532], [-87.729657, 42.113974], [-87.72897, 42.112939], [-87.7284, 42.111961], [-87.727821, 42.111175], [-87.72701, 42.110604], [-87.727059, 42.110436], [-87.726409, 42.109523], [-87.725966, 42.108795], [-87.725429, 42.10836], [-87.724876, 42.108018], [-87.724751, 42.107851], [-87.724754, 42.107584], [-87.723693, 42.1067], [-87.721971, 42.105468], [-87.722026, 42.105215], [-87.721075, 42.104356], [-87.721087, 42.104182], [-87.720649, 42.103826], [-87.720273, 42.103484], [-87.720224, 42.103213], [-87.719445, 42.10275], [-87.718702, 42.102138], [-87.717873, 42.10144], [-87.717255, 42.10088], [-87.716588, 42.100198], [-87.715864, 42.099468], [-87.715465, 42.09957], [-87.715281, 42.099258], [-87.715255, 42.098963], [-87.714888, 42.098872], [-87.714797, 42.098394], [-87.714396, 42.097997], [-87.713526, 42.097323], [-87.713041, 42.096778], [-87.712439, 42.096318], [-87.711451, 42.09589], [-87.711453, 42.095672], [-87.710476, 42.094969], [-87.708987, 42.094189], [-87.708121, 42.093496], [-87.707872, 42.093404], [-87.707109, 42.092888], [-87.706659, 42.092124], [-87.705857, 42.091531], [-87.704914, 42.091087], [-87.705047, 42.090965], [-87.70401, 42.090283], [-87.702323, 42.089191], [-87.701248, 42.088679], [-87.700291, 42.088246], [-87.700291, 42.087935], [-87.698462, 42.086877], [-87.698479, 42.086671], [-87.696977, 42.085971], [-87.696062, 42.085326], [-87.695252, 42.084771], [-87.694002, 42.084025], [-87.693274, 42.08359], [-87.691656, 42.082808], [-87.689392, 42.081824], [-87.68735, 42.081], [-87.684819, 42.080053], [-87.68354, 42.079342], [-87.682303, 42.078952], [-87.681941, 42.078671], [-87.681697, 42.07827], [-87.679979, 42.078595], [-87.679869, 42.078541], [-87.681325, 42.078196], [-87.681297, 42.07717], [-87.681794, 42.077528], [-87.683115, 42.077263], [-87.683706, 42.076873], [-87.684386, 42.076073], [-87.685655, 42.074807], [-87.685276, 42.074744], [-87.684084, 42.075872], [-87.683457, 42.075543], [-87.682465, 42.076361], [-87.682197, 42.077004], [-87.68227, 42.076212], [-87.68224, 42.075511], [-87.681865, 42.074351], [-87.680982, 42.0732], [-87.680266, 42.072453], [-87.679722, 42.071781], [-87.679255, 42.070854], [-87.678582, 42.069871], [-87.677788, 42.068575], [-87.67721, 42.067778], [-87.676995, 42.067389], [-87.676687, 42.066894], [-87.676268, 42.066659], [-87.675872, 42.066383], [-87.675874, 42.066157], [-87.675718, 42.06608], [-87.675639, 42.06582], [-87.675725, 42.065647], [-87.675493, 42.065084], [-87.674781, 42.063916], [-87.674776, 42.063009], [-87.67443, 42.061965], [-87.673499, 42.061954], [-87.673492, 42.061662], [-87.673517, 42.061411], [-87.67394, 42.061073], [-87.674003, 42.060529], [-87.672796, 42.059607], [-87.671805, 42.059481], [-87.6717, 42.059926], [-87.671077, 42.060146], [-87.67014, 42.059796], [-87.669549, 42.059197], [-87.669749, 42.058114], [-87.669868, 42.056564], [-87.669905, 42.05546], [-87.669868, 42.054373], [-87.669718, 42.053511], [-87.669495, 42.052571], [-87.669185, 42.051858], [-87.669436, 42.051594], [-87.669865, 42.051466], [-87.670484, 42.051693], [-87.670374, 42.052204], [-87.669867, 42.051948], [-87.669991, 42.052688], [-87.670186, 42.053265], [-87.670367, 42.054119], [-87.670457, 42.054875], [-87.670467, 42.055479], [-87.670369, 42.056781], [-87.670294, 42.057497], [-87.670216, 42.058179], [-87.670218, 42.058675], [-87.670801, 42.05859], [-87.673254, 42.058949], [-87.67384, 42.059316], [-87.674385, 42.059264], [-87.674395, 42.057911], [-87.674229, 42.057624], [-87.674267, 42.057303], [-87.673973, 42.056995], [-87.673996, 42.055992], [-87.673478, 42.055985], [-87.673553, 42.055666], [-87.674271, 42.055644], [-87.674291, 42.055549], [-87.674413, 42.054918], [-87.674391, 42.05421], [-87.674136, 42.05339], [-87.673808, 42.052823], [-87.673646, 42.051809], [-87.67333, 42.051755], [-87.673273, 42.050844], [-87.673287, 42.050037], [-87.673566, 42.049986], [-87.673095, 42.048816], [-87.672373, 42.048017], [-87.673182, 42.047767], [-87.672662, 42.046619], [-87.672114, 42.045536], [-87.672101, 42.045216], [-87.671984, 42.044059], [-87.67184, 42.043233], [-87.671055, 42.042447], [-87.670552, 42.042059], [-87.670507, 42.041934], [-87.669498, 42.040982], [-87.669078, 42.040076], [-87.668662, 42.038732], [-87.668249, 42.036782], [-87.667988, 42.03199], [-87.667598, 42.029883], [-87.667452, 42.027954], [-87.66705, 42.026628], [-87.666443, 42.02556], [-87.66557, 42.023816], [-87.665282, 42.022963], [-87.665072, 42.022114], [-87.664269, 42.021349], [-87.664256, 42.021005], [-87.663835, 42.02016], [-87.6641, 42.019936], [-87.663919, 42.01939], [-87.663796, 42.01917], [-87.663823, 42.018719], [-87.663436, 42.018269], [-87.663503, 42.017953], [-87.663291, 42.017606], [-87.663208, 42.017133], [-87.66327, 42.016892], [-87.662975, 42.016565], [-87.662836, 42.016251], [-87.662835, 42.015868], [-87.662085, 42.014798], [-87.662201, 42.014464], [-87.661559, 42.013338], [-87.661573, 42.012958], [-87.661357, 42.012722], [-87.661154, 42.012726], [-87.660062, 42.010885], [-87.658677, 42.00975], [-87.658938, 42.009545], [-87.658226, 42.009068], [-87.657183, 42.007757], [-87.65637, 42.006662], [-87.655898, 42.006368], [-87.655297, 42.006718], [-87.655952, 42.006154], [-87.657196, 42.006172], [-87.65733, 42.005196], [-87.657164, 42.004504], [-87.657171, 42.0037], [-87.656984, 42.002975], [-87.656833, 42.002278], [-87.656687, 42.001956], [-87.656274, 42.001247], [-87.656246, 42.001021], [-87.656354, 42.000851], [-87.655935, 41.999836], [-87.655221, 41.998233], [-87.654583, 41.998173], [-87.654494, 41.997659], [-87.654689, 41.997566], [-87.654641, 41.997154], [-87.654254, 41.996983], [-87.654243, 41.99644], [-87.654514, 41.996397], [-87.654567, 41.9954], [-87.654403, 41.995285], [-87.654529, 41.995143], [-87.654504, 41.994561], [-87.654268, 41.994555], [-87.654139, 41.993994], [-87.654404, 41.993893], [-87.654423, 41.993474], [-87.654576, 41.993427], [-87.654449, 41.992802], [-87.654012, 41.992707], [-87.65403, 41.992297], [-87.654468, 41.992083], [-87.654087, 41.990197], [-87.654688, 41.990116], [-87.654684, 41.989584], [-87.654511, 41.989421], [-87.65451, 41.988939], [-87.654628, 41.988783], [-87.653928, 41.988318], [-87.651586, 41.985849], [-87.650494, 41.985397], [-87.649946, 41.985182], [-87.650391, 41.983879], [-87.65041, 41.98374], [-87.650547, 41.982636], [-87.650581, 41.981944], [-87.650456, 41.980278], [-87.650069, 41.979836], [-87.650292, 41.97941], [-87.649325, 41.978538], [-87.649043, 41.977916], [-87.647585, 41.977745], [-87.646806, 41.977609], [-87.646401, 41.977289], [-87.646164, 41.977032], [-87.646029, 41.973185], [-87.645083, 41.971302], [-87.643258, 41.969146], [-87.641937, 41.967902], [-87.64038, 41.966894], [-87.63882, 41.966143], [-87.637017, 41.965622], [-87.635415, 41.965333], [-87.631756, 41.965169], [-87.631455, 41.964021], [-87.631263, 41.963232], [-87.631271, 41.962673], [-87.631893, 41.962346], [-87.633514, 41.961809], [-87.634129, 41.961454], [-87.635145, 41.960505], [-87.636455, 41.959596], [-87.637962, 41.959465], [-87.639463, 41.959529], [-87.640646, 41.959746], [-87.640835, 41.960394], [-87.640723, 41.960703], [-87.640479, 41.960857], [-87.639781, 41.960714], [-87.6386, 41.960288], [-87.637581, 41.960413], [-87.636588, 41.960819], [-87.635254, 41.962034], [-87.63525, 41.962329], [-87.635631, 41.962718], [-87.636463, 41.962816], [-87.641491, 41.962347], [-87.642118, 41.961695], [-87.642113, 41.96105], [-87.641571, 41.960375], [-87.641465, 41.959518], [-87.641619, 41.958333], [-87.641325, 41.956658], [-87.64076, 41.954632], [-87.639054, 41.950198], [-87.637894, 41.947675], [-87.636282, 41.945718], [-87.63423, 41.943694], [-87.633243, 41.942772], [-87.633101, 41.942301], [-87.633389, 41.942162], [-87.633786, 41.942223], [-87.633932, 41.942554], [-87.634226, 41.943035], [-87.634663, 41.943119], [-87.635419, 41.942871], [-87.635917, 41.942868], [-87.636138, 41.943053], [-87.637004, 41.944569], [-87.636881, 41.944881], [-87.637459, 41.945767], [-87.638569, 41.94607], [-87.639012, 41.946215], [-87.639746, 41.946226], [-87.640304, 41.946491], [-87.640303, 41.946645], [-87.641066, 41.947379], [-87.641787, 41.947875], [-87.642105, 41.947863], [-87.64199, 41.947492], [-87.641048, 41.946701], [-87.640075, 41.945829], [-87.640371, 41.944731], [-87.639579, 41.943572], [-87.63912, 41.943364], [-87.638555, 41.94241], [-87.638465, 41.941377], [-87.638108, 41.940796], [-87.637421, 41.940197], [-87.63685, 41.939701], [-87.636292, 41.939459], [-87.635648, 41.93962], [-87.634924, 41.940182], [-87.634698, 41.94089], [-87.63454, 41.941546], [-87.634027, 41.941544], [-87.633914, 41.940938], [-87.633925, 41.940147], [-87.633402, 41.938731], [-87.632748, 41.937704], [-87.632216, 41.936888], [-87.632051, 41.935907], [-87.631229, 41.934538], [-87.630368, 41.933618], [-87.630458, 41.933176], [-87.631263, 41.932888], [-87.631354, 41.932533], [-87.631847, 41.932458], [-87.631389, 41.932341], [-87.63097, 41.932133], [-87.630974, 41.93159], [-87.631143, 41.930554], [-87.631059, 41.928896], [-87.630183, 41.927595], [-87.629673, 41.926827], [-87.62946, 41.926109], [-87.629958, 41.926004], [-87.629847, 41.925614], [-87.629306, 41.924594], [-87.629508, 41.924255], [-87.628692, 41.922925], [-87.629476, 41.922446], [-87.629164, 41.921728], [-87.628607, 41.92092], [-87.629031, 41.920653], [-87.628065, 41.919415], [-87.62855, 41.919078], [-87.627537, 41.917816], [-87.627769, 41.917574], [-87.627586, 41.917111], [-87.626762, 41.916338], [-87.626932, 41.916056], [-87.62571, 41.915266], [-87.624229, 41.914242], [-87.623454, 41.91385], [-87.622621, 41.91355], [-87.621769, 41.913515], [-87.621286, 41.913635], [-87.620253, 41.914164], [-87.620251, 41.913561], [-87.620971, 41.912908], [-87.62293, 41.912654], [-87.624047, 41.911759], [-87.624828, 41.911255], [-87.624602, 41.911183], [-87.624808, 41.910668], [-87.62544, 41.909936], [-87.625081, 41.908522], [-87.624052, 41.903969], [-87.622641, 41.902555], [-87.622646, 41.901814], [-87.62013, 41.90153], [-87.619736, 41.901513], [-87.619501, 41.901335], [-87.61904, 41.900917], [-87.616249, 41.896748], [-87.613846, 41.893042], [-87.612554, 41.89309], [-87.61202, 41.893311], [-87.610232, 41.896194], [-87.607947, 41.896241], [-87.606851, 41.896227], [-87.60685, 41.896401], [-87.605864, 41.896443], [-87.60563, 41.896236], [-87.602304, 41.896288], [-87.602312, 41.893237], [-87.609868, 41.89309], [-87.609817, 41.891998], [-87.598573, 41.892255], [-87.598578, 41.891415], [-87.600924, 41.891415], [-87.601224, 41.891089], [-87.609482, 41.890918], [-87.609496, 41.889231], [-87.611359, 41.889207], [-87.611555, 41.890544], [-87.614045, 41.890536], [-87.614025, 41.890191], [-87.61269, 41.890171], [-87.612572, 41.888961], [-87.613944, 41.888726], [-87.613971, 41.888024], [-87.613616, 41.887916], [-87.613574, 41.886653], [-87.613552, 41.886363], [-87.613753, 41.886292], [-87.613553, 41.886198], [-87.613519, 41.884635], [-87.613898, 41.884387], [-87.614772, 41.88429], [-87.616625, 41.884233], [-87.616613, 41.88401], [-87.614479, 41.884062], [-87.614497, 41.883434], [-87.616517, 41.883457], [-87.616554, 41.88214], [-87.616461, 41.881361], [-87.615812, 41.880555], [-87.616603, 41.880484], [-87.616143, 41.874994], [-87.616252, 41.873871], [-87.616254, 41.87192], [-87.616267, 41.871727], [-87.616235, 41.871437], [-87.616201, 41.868925], [-87.615717, 41.868692], [-87.615323, 41.868272], [-87.614704, 41.868229], [-87.61412, 41.868413], [-87.613082, 41.868075], [-87.612753, 41.86759], [-87.613344, 41.866871], [-87.61339, 41.86669], [-87.607768, 41.86676], [-87.60713, 41.867139], [-87.606075, 41.867012], [-87.60558, 41.866519], [-87.605624, 41.866142], [-87.606059, 41.86562], [-87.606061, 41.864749], [-87.606709, 41.865048], [-87.607317, 41.864663], [-87.60742, 41.863761], [-87.606983, 41.862632], [-87.606727, 41.862427], [-87.606507, 41.861971], [-87.606116, 41.861968], [-87.605965, 41.859992], [-87.607146, 41.859963], [-87.606508, 41.853318], [-87.608916, 41.853064], [-87.609628, 41.853317], [-87.609463, 41.85646], [-87.609338, 41.856852], [-87.610005, 41.857651], [-87.609889, 41.858642], [-87.610479, 41.859287], [-87.610353, 41.859859], [-87.61068, 41.860175], [-87.610646, 41.860608], [-87.610459, 41.861338], [-87.609764, 41.862458], [-87.609751, 41.863998], [-87.610004, 41.8646], [-87.610458, 41.865228], [-87.610549, 41.865822], [-87.612751, 41.865804], [-87.612678, 41.865221], [-87.612937, 41.865194], [-87.613348, 41.863817], [-87.613307, 41.862366], [-87.612585, 41.861294], [-87.612541, 41.860736], [-87.61222, 41.860213], [-87.612425, 41.86001], [-87.612225, 41.859367], [-87.612208, 41.858507], [-87.612613, 41.858427], [-87.613073, 41.857638], [-87.612995, 41.856484], [-87.612896, 41.85618], [-87.613151, 41.855621], [-87.612725, 41.855185], [-87.612434, 41.854915], [-87.612004, 41.854986], [-87.611206, 41.853317], [-87.611004, 41.853033], [-87.610887, 41.852595], [-87.610811, 41.852015], [-87.610663, 41.852024], [-87.610551, 41.851534], [-87.611094, 41.851358], [-87.611092, 41.850914], [-87.611407, 41.850605], [-87.611235, 41.850136], [-87.61095, 41.849903], [-87.610786, 41.849049], [-87.610254, 41.848417], [-87.609886, 41.84788], [-87.60972, 41.847089], [-87.609733, 41.846601], [-87.609214, 41.846174], [-87.609367, 41.845175], [-87.609017, 41.843993], [-87.608703, 41.843222], [-87.608509, 41.84278], [-87.608114, 41.842388], [-87.607998, 41.841242], [-87.607557, 41.840684], [-87.607156, 41.839738], [-87.606079, 41.838687], [-87.606131, 41.837067], [-87.605902, 41.836435], [-87.605368, 41.835619], [-87.60456, 41.834851], [-87.605025, 41.834189], [-87.604913, 41.833702], [-87.604567, 41.833167], [-87.604016, 41.832952], [-87.603361, 41.832903], [-87.602758, 41.832328], [-87.602794, 41.831314], [-87.602219, 41.830255], [-87.601628, 41.829764], [-87.601737, 41.829277], [-87.601527, 41.828486], [-87.601166, 41.827818], [-87.600731, 41.827288], [-87.600456, 41.826848], [-87.599144, 41.826455], [-87.598469, 41.825667], [-87.598485, 41.824444], [-87.598117, 41.824038], [-87.597611, 41.823686], [-87.597454, 41.823369], [-87.597005, 41.822295], [-87.595877, 41.821103], [-87.595475, 41.820184], [-87.594731, 41.819668], [-87.594517, 41.819124], [-87.593972, 41.81911], [-87.593528, 41.818668], [-87.592715, 41.818349], [-87.59221, 41.817555], [-87.592212, 41.81683], [-87.591402, 41.815905], [-87.590705, 41.814841], [-87.59027, 41.814468], [-87.590242, 41.81377], [-87.589551, 41.813166], [-87.588899, 41.812767], [-87.588527, 41.8121], [-87.58718, 41.81177], [-87.587015, 41.811613], [-87.586834, 41.81126], [-87.586906, 41.81053], [-87.58642, 41.809726], [-87.586111, 41.809316], [-87.585583, 41.808164], [-87.585038, 41.80724], [-87.583877, 41.806452], [-87.582751, 41.805616], [-87.581694, 41.804824], [-87.581266, 41.804322], [-87.580999, 41.804141], [-87.580475, 41.804171], [-87.579947, 41.803802], [-87.580438, 41.802602], [-87.580714, 41.80155], [-87.580762, 41.800366], [-87.580328, 41.799303], [-87.57973, 41.798307], [-87.578878, 41.797565], [-87.577788, 41.796898], [-87.577185, 41.796855], [-87.576284, 41.797036], [-87.575339, 41.796724], [-87.574954, 41.79626], [-87.575386, 41.79544], [-87.575986, 41.795072], [-87.57691, 41.794973], [-87.57826, 41.79465], [-87.578901, 41.794139], [-87.579377, 41.793457], [-87.579391, 41.7923], [-87.578897, 41.791258], [-87.577905, 41.789621], [-87.576357, 41.788585], [-87.577385, 41.788342], [-87.578177, 41.788333], [-87.578782, 41.788431], [-87.579388, 41.788236], [-87.579811, 41.787989], [-87.58012, 41.787476], [-87.580483, 41.787289], [-87.580811, 41.787153], [-87.581178, 41.787073], [-87.581831, 41.787437], [-87.582155, 41.787806], [-87.582578, 41.788226], [-87.582542, 41.788603], [-87.582616, 41.789098], [-87.581903, 41.789059], [-87.581419, 41.789873], [-87.581967, 41.789901], [-87.58251, 41.789849], [-87.58305, 41.789769], [-87.583477, 41.7898], [-87.584117, 41.789816], [-87.584486, 41.789425], [-87.584533, 41.7892], [-87.58398, 41.789078], [-87.583351, 41.788911], [-87.582918, 41.788579], [-87.582909, 41.788113], [-87.583078, 41.787735], [-87.583861, 41.788048], [-87.584233, 41.787927], [-87.584572, 41.787786], [-87.584548, 41.787463], [-87.584595, 41.787103], [-87.584537, 41.786683], [-87.584461, 41.785717], [-87.584208, 41.785282], [-87.584129, 41.784705], [-87.584137, 41.784151], [-87.584143, 41.783658], [-87.584145, 41.783454], [-87.584151, 41.783126], [-87.583936, 41.782643], [-87.583808, 41.782213], [-87.583552, 41.781771], [-87.583369, 41.781581], [-87.582902, 41.781697], [-87.582366, 41.78178], [-87.581646, 41.781945], [-87.580787, 41.78224], [-87.580533, 41.782785], [-87.580319, 41.783164], [-87.580037, 41.783262], [-87.579465, 41.783143], [-87.57903, 41.78315], [-87.579277, 41.78355], [-87.579664, 41.78381], [-87.580273, 41.783881], [-87.58035, 41.784301], [-87.580474, 41.784716], [-87.580706, 41.78512], [-87.580574, 41.78549], [-87.58069, 41.786206], [-87.580592, 41.786932], [-87.579863, 41.78708], [-87.579017, 41.787285], [-87.578538, 41.787817], [-87.578043, 41.788127], [-87.577012, 41.788119], [-87.577274, 41.787309], [-87.577078, 41.786273], [-87.57634, 41.784521], [-87.575913, 41.783834], [-87.575375, 41.783343], [-87.574864, 41.783053], [-87.574067, 41.782572], [-87.572755, 41.782074], [-87.571613, 41.781684], [-87.570569, 41.781472], [-87.569531, 41.781452], [-87.569379, 41.781229], [-87.571463, 41.780739], [-87.572936, 41.780225], [-87.572916, 41.779885], [-87.574571, 41.77909], [-87.575053, 41.778295], [-87.575233, 41.777681], [-87.57518, 41.777065], [-87.574793, 41.776441], [-87.574556, 41.775969], [-87.575155, 41.775879], [-87.575956, 41.776479], [-87.576589, 41.777385], [-87.576503, 41.777954], [-87.577202, 41.778371], [-87.576746, 41.779541], [-87.576419, 41.77975], [-87.576641, 41.780112], [-87.578015, 41.779856], [-87.578476, 41.78021], [-87.578857, 41.780164], [-87.578697, 41.779566], [-87.578983, 41.779074], [-87.578513, 41.778507], [-87.578514, 41.777837], [-87.578323, 41.777288], [-87.578208, 41.777066], [-87.577525, 41.776865], [-87.577495, 41.776479], [-87.577952, 41.776337], [-87.577484, 41.776211], [-87.576815, 41.776035], [-87.57633, 41.775994], [-87.576053, 41.77578], [-87.575644, 41.775633], [-87.574692, 41.775709], [-87.574192, 41.77553], [-87.573471, 41.775502], [-87.572829, 41.775542], [-87.571987, 41.77576], [-87.571892, 41.776776], [-87.572037, 41.777004], [-87.572296, 41.777336], [-87.572836, 41.777408], [-87.57328, 41.778115], [-87.573262, 41.779], [-87.5723, 41.779294], [-87.571777, 41.77877], [-87.570751, 41.77778], [-87.570206, 41.7774], [-87.569065, 41.776849], [-87.568459, 41.776401], [-87.568058, 41.77599], [-87.567603, 41.775431], [-87.566482, 41.774061], [-87.566359, 41.773969], [-87.565877, 41.773579], [-87.565539, 41.773022], [-87.564499, 41.772437], [-87.563982, 41.772084], [-87.563211, 41.771857], [-87.56334, 41.771071], [-87.563148, 41.770574], [-87.562817, 41.770048], [-87.562176, 41.769018], [-87.561494, 41.768781], [-87.560657, 41.768558], [-87.559967, 41.768481], [-87.559682, 41.768799], [-87.559551, 41.769254], [-87.55935, 41.768429], [-87.559314, 41.767367], [-87.559314, 41.766593], [-87.560446, 41.766296], [-87.560362, 41.765474], [-87.559974, 41.764875], [-87.559626, 41.764966], [-87.559401, 41.764717], [-87.559349, 41.764344], [-87.558668, 41.763938], [-87.55832, 41.764007], [-87.557908, 41.763604], [-87.557457, 41.763147], [-87.557447, 41.76272], [-87.556735, 41.762515], [-87.556571, 41.762314], [-87.556384, 41.762035], [-87.555605, 41.761858], [-87.554973, 41.761663], [-87.554543, 41.761901], [-87.554166, 41.76106], [-87.552972, 41.760564], [-87.551998, 41.76011], [-87.551092, 41.759759], [-87.550015, 41.759289], [-87.549259, 41.759076], [-87.548172, 41.758833], [-87.547186, 41.75883], [-87.546609, 41.759047], [-87.545024, 41.759609], [-87.544206, 41.75975], [-87.543627, 41.760063], [-87.542465, 41.758983], [-87.542603, 41.758657], [-87.541433, 41.757734], [-87.54105, 41.757736], [-87.540417, 41.757189], [-87.543728, 41.75513], [-87.544257, 41.754019], [-87.543809, 41.752942], [-87.542777, 41.751972], [-87.540319, 41.75177], [-87.538107, 41.750981], [-87.535597, 41.749954], [-87.535526, 41.749991], [-87.533357, 41.749101], [-87.530883, 41.747961], [-87.530533, 41.745289], [-87.530236, 41.743096], [-87.529973, 41.741633], [-87.529446, 41.741249], [-87.529654, 41.741192], [-87.530118, 41.741197], [-87.530528, 41.74103], [-87.534568, 41.740963], [-87.539864, 41.740856], [-87.539855, 41.740417], [-87.535412, 41.740417], [-87.529877, 41.740479], [-87.529552, 41.73834], [-87.529225, 41.737331], [-87.529258, 41.736446], [-87.528926, 41.733662], [-87.531758, 41.732459], [-87.533819, 41.731563], [-87.535794, 41.730724], [-87.536823, 41.730266], [-87.537144, 41.73039], [-87.537164, 41.730437], [-87.537513, 41.731242], [-87.53815, 41.732617], [-87.538532, 41.733536], [-87.538796, 41.733449], [-87.538835, 41.732755], [-87.538106, 41.731095], [-87.538355, 41.730633], [-87.537994, 41.729858], [-87.53879, 41.729443], [-87.539624, 41.728983], [-87.540328, 41.729203], [-87.540681, 41.729206], [-87.54087, 41.729039], [-87.540643, 41.728743], [-87.541194, 41.728272], [-87.541624, 41.727923], [-87.54191, 41.727451], [-87.542102, 41.727299], [-87.541357, 41.727081], [-87.540381, 41.727608], [-87.539364, 41.728361], [-87.538886, 41.728352], [-87.529806, 41.732051], [-87.528653, 41.730237], [-87.525137, 41.724176], [-87.524904, 41.723671], [-87.524783, 41.722563], [-87.524812, 41.721615], [-87.524901, 41.721229], [-87.525367, 41.721036], [-87.525782, 41.720612], [-87.526004, 41.720186], [-87.525926, 41.719624], [-87.525655, 41.719075], [-87.52538, 41.718652], [-87.525044, 41.718389], [-87.524839, 41.718156], [-87.524871, 41.717507], [-87.524891, 41.71708], [-87.525638, 41.717063], [-87.52632, 41.717025], [-87.527169, 41.716801], [-87.527951, 41.716359], [-87.528381, 41.715748], [-87.52823, 41.715126], [-87.527989, 41.714402], [-87.527404, 41.713397], [-87.526909, 41.712948], [-87.526387, 41.712441], [-87.525411, 41.71321], [-87.525344, 41.713124], [-87.526648, 41.712034], [-87.527979, 41.710942], [-87.527133, 41.710305], [-87.526372, 41.709752], [-87.52594, 41.709814], [-87.525798, 41.709754], [-87.525869, 41.709479], [-87.525682, 41.709341], [-87.525444, 41.709282], [-87.525322, 41.709054], [-87.524862, 41.708793], [-87.524641, 41.708682], [-87.524456, 41.702886], [-87.524719, 41.68835], [-87.524721, 41.688076], [-87.524817, 41.673536], [-87.524971, 41.658959], [-87.525059, 41.644884], [-87.525261, 41.63005], [-87.524897, 41.615703], [-87.525003, 41.601132], [-87.525108, 41.58671], [-87.525128, 41.572189], [-87.525177, 41.557675], [-87.525191, 41.542815], [-87.5254, 41.528374], [-87.525403, 41.51378], [-87.525251, 41.499121], [-87.525676, 41.484653], [-87.525546, 41.470225], [-87.536373, 41.470093], [-87.538383, 41.470095], [-87.555592, 41.470066], [-87.557746, 41.470063], [-87.574879, 41.469957], [-87.577151, 41.469946], [-87.589059, 41.469891], [-87.594178, 41.469868], [-87.596531, 41.469883], [-87.613458, 41.469776], [-87.616036, 41.469778], [-87.632566, 41.469709], [-87.635169, 41.469701], [-87.651915, 41.469656], [-87.654488, 41.469674], [-87.671121, 41.469607], [-87.674055, 41.469703], [-87.690758, 41.469578], [-87.693549, 41.469558], [-87.709756, 41.469493], [-87.712767, 41.469593], [-87.728953, 41.469616], [-87.732117, 41.469635], [-87.748214, 41.469687], [-87.751255, 41.469778], [-87.767296, 41.469742], [-87.7708, 41.469753], [-87.787256, 41.469847], [-87.790055, 41.469914], [-87.789992, 41.484457], [-87.790022, 41.498956], [-87.790457, 41.513238], [-87.790437, 41.527849], [-87.790369, 41.539054], [-87.792158, 41.537701], [-87.792264, 41.54386], [-87.792791, 41.558478], [-87.812331, 41.558201], [-87.831868, 41.557909], [-87.851354, 41.557583], [-87.870813, 41.55716], [-87.890299, 41.557095], [-87.909634, 41.556763], [-87.910004, 41.571321], [-87.910515, 41.585806], [-87.910802, 41.600313], [-87.911252, 41.614915], [-87.911486, 41.629338], [-87.91214, 41.643843], [-87.93146, 41.643499], [-87.950697, 41.643027], [-87.969978, 41.642695], [-87.989486, 41.642254], [-88.009082, 41.641672], [-88.027778, 41.641352], [-88.028156, 41.656015], [-88.028468, 41.67063], [-88.029222, 41.685249], [-88.010666, 41.685466], [-88.000182, 41.685617], [-87.993887, 41.68578], [-87.991145, 41.685838], [-87.989821, 41.685865], [-87.98596, 41.685957], [-87.982686, 41.685915], [-87.982471, 41.686211], [-87.982294, 41.686347], [-87.98216, 41.686451], [-87.981955, 41.686526], [-87.981639, 41.686623], [-87.981337, 41.68672], [-87.981139, 41.686785], [-87.980933, 41.686855], [-87.980601, 41.687018], [-87.980286, 41.687104], [-87.979992, 41.687184], [-87.979734, 41.687254], [-87.979287, 41.687323], [-87.978971, 41.687349], [-87.978686, 41.687336], [-87.978437, 41.68729], [-87.978212, 41.687228], [-87.977875, 41.68715], [-87.977613, 41.68706], [-87.977357, 41.686998], [-87.977029, 41.686908], [-87.976635, 41.686752], [-87.976234, 41.686589], [-87.975963, 41.686549], [-87.975715, 41.686488], [-87.97543, 41.686447], [-87.97524, 41.686435], [-87.974939, 41.686472], [-87.974689, 41.686547], [-87.974299, 41.686644], [-87.973947, 41.686752], [-87.973668, 41.686849], [-87.973387, 41.686973], [-87.973145, 41.687092], [-87.972696, 41.6872], [-87.972262, 41.687318], [-87.971939, 41.687415], [-87.971701, 41.687399], [-87.971567, 41.68739], [-87.97131, 41.687367], [-87.97112, 41.687322], [-87.970945, 41.687266], [-87.970748, 41.687182], [-87.970501, 41.687065], [-87.970231, 41.686959], [-87.969931, 41.686875], [-87.969596, 41.686801], [-87.969223, 41.686744], [-87.968608, 41.686668], [-87.967972, 41.686631], [-87.967554, 41.68664], [-87.967063, 41.686648], [-87.966588, 41.68659], [-87.966308, 41.686753], [-87.965806, 41.687085], [-87.96498, 41.68753], [-87.964382, 41.687911], [-87.963549, 41.688319], [-87.962922, 41.688716], [-87.962325, 41.689003], [-87.961941, 41.689292], [-87.961432, 41.689596], [-87.960725, 41.689905], [-87.960164, 41.690237], [-87.959759, 41.690427], [-87.959479, 41.69053], [-87.95906, 41.690703], [-87.958684, 41.690881], [-87.958427, 41.691006], [-87.958109, 41.69118], [-87.957836, 41.691327], [-87.957681, 41.691441], [-87.957407, 41.691681], [-87.957096, 41.691932], [-87.956822, 41.692167], [-87.956497, 41.692451], [-87.956245, 41.692674], [-87.955831, 41.692996], [-87.955676, 41.693083], [-87.955462, 41.693213], [-87.955088, 41.693288], [-87.954786, 41.693385], [-87.954367, 41.69347], [-87.95398, 41.693445], [-87.953532, 41.693509], [-87.953143, 41.693578], [-87.952688, 41.693618], [-87.952416, 41.693657], [-87.952241, 41.693682], [-87.95202, 41.693741], [-87.951659, 41.693865], [-87.951365, 41.693929], [-87.951057, 41.694042], [-87.950718, 41.694183], [-87.950402, 41.694302], [-87.949829, 41.694408], [-87.949167, 41.694663], [-87.948717, 41.694923], [-87.948532, 41.695071], [-87.948192, 41.695299], [-87.947757, 41.695549], [-87.94752, 41.69569], [-87.947152, 41.695924], [-87.946855, 41.696131], [-87.946583, 41.6963], [-87.946184, 41.696578], [-87.945578, 41.696964], [-87.945106, 41.697291], [-87.944714, 41.697541], [-87.944285, 41.697857], [-87.943937, 41.698113], [-87.943598, 41.698336], [-87.943242, 41.698631], [-87.942837, 41.698853], [-87.942483, 41.699049], [-87.942264, 41.701392], [-87.942119, 41.702944], [-87.941869, 41.703013], [-87.941641, 41.703106], [-87.941472, 41.70317], [-87.941251, 41.703267], [-87.941089, 41.703354], [-87.940823, 41.703501], [-87.940471, 41.703576], [-87.940214, 41.703634], [-87.939927, 41.703709], [-87.939736, 41.703785], [-87.939566, 41.703872], [-87.939374, 41.703953], [-87.93919, 41.704078], [-87.939041, 41.704215], [-87.938923, 41.70433], [-87.938746, 41.704427], [-87.938546, 41.704508], [-87.938289, 41.704622], [-87.938098, 41.704709], [-87.937892, 41.704779], [-87.937568, 41.70486], [-87.937288, 41.704984], [-87.937008, 41.70512], [-87.936786, 41.705278], [-87.93652, 41.705468], [-87.936342, 41.705621], [-87.936149, 41.705812], [-87.935971, 41.705998], [-87.935867, 41.706118], [-87.93577, 41.706282], [-87.935666, 41.706435], [-87.935568, 41.706605], [-87.935412, 41.706791], [-87.935263, 41.70696], [-87.935136, 41.707179], [-87.934985, 41.707536], [-87.934873, 41.707683], [-87.934798, 41.707825], [-87.934738, 41.708001], [-87.934618, 41.708148], [-87.934477, 41.70828], [-87.934292, 41.708421], [-87.934137, 41.70853], [-87.93396, 41.708655], [-87.93379, 41.70872], [-87.933554, 41.708823], [-87.93353, 41.708834], [-87.933216, 41.708969], [-87.932914, 41.709067], [-87.932649, 41.709142], [-87.932377, 41.709233], [-87.932163, 41.709314], [-87.931921, 41.709411], [-87.931553, 41.709525], [-87.931258, 41.709632], [-87.931053, 41.709703], [-87.930766, 41.709822], [-87.930581, 41.70993], [-87.930367, 41.710044], [-87.929998, 41.710267], [-87.929643, 41.71054], [-87.929524, 41.710654], [-87.929368, 41.710796], [-87.929198, 41.710921], [-87.928998, 41.711074], [-87.928784, 41.711254], [-87.928547, 41.711429], [-87.928413, 41.711576], [-87.92817, 41.711756], [-87.928021, 41.711859], [-87.927821, 41.712023], [-87.927696, 41.712132], [-87.927252, 41.712464], [-87.927104, 41.712573], [-87.926978, 41.712682], [-87.926661, 41.712779], [-87.926383, 41.712749], [-87.926046, 41.712731], [-87.925834, 41.712724], [-87.925512, 41.712721], [-87.925255, 41.712781], [-87.925056, 41.712845], [-87.924805, 41.712976], [-87.924651, 41.713068], [-87.924517, 41.713166], [-87.924339, 41.713318], [-87.924161, 41.713515], [-87.923961, 41.713695], [-87.923753, 41.713908], [-87.923596, 41.714111], [-87.923447, 41.714318], [-87.923225, 41.714542], [-87.923009, 41.714821], [-87.922771, 41.715062], [-87.922452, 41.715394], [-87.922096, 41.715683], [-87.921652, 41.716087], [-87.921372, 41.716234], [-87.921121, 41.716325], [-87.92098, 41.716363], [-87.920842, 41.7164], [-87.920452, 41.71648], [-87.920035, 41.716483], [-87.919801, 41.71647], [-87.919288, 41.71645], [-87.918935, 41.716448], [-87.918679, 41.716491], [-87.918371, 41.716516], [-87.918122, 41.716487], [-87.917991, 41.716427], [-87.91794, 41.716403], [-87.917722, 41.716308], [-87.917554, 41.716247], [-87.917196, 41.716184], [-87.916961, 41.71616], [-87.91672, 41.716164], [-87.916477, 41.716228], [-87.916189, 41.716336], [-87.915683, 41.716476], [-87.915644, 41.716477], [-87.915337, 41.716573], [-87.914969, 41.716664], [-87.914587, 41.716755], [-87.914285, 41.716781], [-87.914569, 41.723757], [-87.91486, 41.731009], [-87.915358, 41.745676], [-87.916022, 41.760182], [-87.916596, 41.77477], [-87.917, 41.789391], [-87.917633, 41.803987], [-87.918283, 41.818542], [-87.918903, 41.8331], [-87.91958, 41.847726], [-87.920114, 41.86218], [-87.920232, 41.865525], [-87.920744, 41.87683], [-87.920634, 41.891244], [-87.920587, 41.892714], [-87.920118, 41.906808], [-87.920504, 41.921308], [-87.920274, 41.935801], [-87.920318, 41.950242], [-87.920318, 41.95042], [-87.920318, 41.950496], [-87.920312, 41.964897], [-87.92031, 41.965036], [-87.920459, 41.979416], [-87.920526, 41.993997], [-87.940054, 41.99343], [-87.959281, 41.993087], [-87.978758, 41.992812], [-87.97886, 41.992812], [-87.978947, 41.992811], [-87.998279, 41.99259], [-88.017948, 41.992437], [-88.031261, 41.99251], [-88.050977, 41.991842], [-88.070386, 41.991349], [-88.090073, 41.9906], [-88.090761, 41.990569], [-88.109677, 41.989752], [-88.11031, 41.989725], [-88.129043, 41.988801], [-88.129886, 41.988769], [-88.144928, 41.988213], [-88.164531, 41.987751], [-88.183752, 41.987646], [-88.184133, 41.987645], [-88.203629, 41.987327], [-88.222935, 41.987052], [-88.223146, 41.987021], [-88.24234, 41.986704], [-88.242545, 41.986702], [-88.24265, 41.986699], [-88.262727, 41.986368], [-88.26312, 42.001092], [-88.263255, 42.015682], [-88.263277, 42.030106], [-88.263277, 42.030216], [-88.263278, 42.030318], [-88.263338, 42.04472], [-88.263551, 42.059296], [-88.263553, 42.059477], [-88.263556, 42.059628], [-88.263635, 42.06716], [-88.25766, 42.067068], [-88.242514, 42.066831], [-88.23808, 42.066948], [-88.238275, 42.081291], [-88.238303, 42.095901], [-88.238408, 42.110308], [-88.238357, 42.124824], [-88.238584, 42.124961], [-88.238643, 42.13945], [-88.238571, 42.15424]]]]}, "properties": {"name": "Cook", "co_fips": 31, "cartodb_id": 29, "created_at": "2014-12-26T02:19:38Z", "updated_at": "2014-12-26T02:21:22Z"}}, {"type": "Feature", "geometry": {"type": "MultiPolygon", "coordinates": [[[[-88.261457, 41.724386], [-88.261464, 41.724593], [-88.245, 41.724733], [-88.225526, 41.725001], [-88.206177, 41.725215], [-88.186703, 41.725478], [-88.167313, 41.725699], [-88.148001, 41.726114], [-88.126805, 41.726637], [-88.107516, 41.72699], [-88.088104, 41.727521], [-88.082927, 41.72766], [-88.068948, 41.727975], [-88.049954, 41.728373], [-88.049491, 41.728367], [-88.030289, 41.728825], [-88.029832, 41.71422], [-88.029226, 41.699847], [-88.029222, 41.685249], [-88.028468, 41.67063], [-88.028156, 41.656015], [-88.027778, 41.641352], [-88.009082, 41.641672], [-87.989486, 41.642254], [-87.969978, 41.642695], [-87.950697, 41.643027], [-87.93146, 41.643499], [-87.91214, 41.643843], [-87.911486, 41.629338], [-87.911252, 41.614915], [-87.910802, 41.600313], [-87.910515, 41.585806], [-87.910004, 41.571321], [-87.909634, 41.556763], [-87.890299, 41.557095], [-87.870813, 41.55716], [-87.851354, 41.557583], [-87.831868, 41.557909], [-87.812331, 41.558201], [-87.792791, 41.558478], [-87.792264, 41.54386], [-87.792158, 41.537701], [-87.790369, 41.539054], [-87.790437, 41.527849], [-87.790457, 41.513238], [-87.790022, 41.498956], [-87.789992, 41.484457], [-87.790055, 41.469914], [-87.787256, 41.469847], [-87.7708, 41.469753], [-87.767296, 41.469742], [-87.751255, 41.469778], [-87.748214, 41.469687], [-87.732117, 41.469635], [-87.728953, 41.469616], [-87.712767, 41.469593], [-87.709756, 41.469493], [-87.693549, 41.469558], [-87.690758, 41.469578], [-87.674055, 41.469703], [-87.671121, 41.469607], [-87.654488, 41.469674], [-87.651915, 41.469656], [-87.635169, 41.469701], [-87.632566, 41.469709], [-87.616036, 41.469778], [-87.613458, 41.469776], [-87.596531, 41.469883], [-87.594178, 41.469868], [-87.589059, 41.469891], [-87.577151, 41.469946], [-87.574879, 41.469957], [-87.557746, 41.470063], [-87.555592, 41.470066], [-87.538383, 41.470095], [-87.536373, 41.470093], [-87.525546, 41.470225], [-87.525577, 41.458111], [-87.52606, 41.443273], [-87.525826, 41.428907], [-87.526165, 41.414249], [-87.526051, 41.399895], [-87.526339, 41.385067], [-87.526286, 41.370637], [-87.526307, 41.356085], [-87.52653, 41.341477], [-87.526554, 41.327053], [-87.526716, 41.312506], [-87.526769, 41.298085], [-87.530757, 41.298059], [-87.534407, 41.298044], [-87.549817, 41.297828], [-87.553512, 41.2978], [-87.569052, 41.297672], [-87.572778, 41.29769], [-87.588106, 41.297537], [-87.592189, 41.297464], [-87.607355, 41.297333], [-87.611375, 41.297308], [-87.626357, 41.2971], [-87.630705, 41.297116], [-87.645622, 41.29699], [-87.649901, 41.296939], [-87.657713, 41.296846], [-87.664532, 41.296767], [-87.668954, 41.29674], [-87.68386, 41.296602], [-87.688313, 41.29666], [-87.703094, 41.296418], [-87.706071, 41.296396], [-87.707488, 41.296387], [-87.722213, 41.296282], [-87.726894, 41.296266], [-87.74214, 41.296125], [-87.746218, 41.296121], [-87.76157, 41.295833], [-87.765113, 41.295829], [-87.781265, 41.295743], [-87.784407, 41.295727], [-87.800814, 41.29551], [-87.803773, 41.295475], [-87.820286, 41.29527], [-87.823354, 41.29525], [-87.839518, 41.295101], [-87.842345, 41.295093], [-87.858975, 41.29486], [-87.861717, 41.294853], [-87.878392, 41.294665], [-87.880908, 41.294583], [-87.897615, 41.294337], [-87.900259, 41.294293], [-87.917057, 41.294056], [-87.919677, 41.293964], [-87.936584, 41.293589], [-87.938828, 41.293556], [-87.956048, 41.293307], [-87.958237, 41.293275], [-87.966204, 41.293156], [-87.97537, 41.29304], [-87.977637, 41.293011], [-87.994743, 41.292669], [-87.99663, 41.292659], [-88.01388, 41.292435], [-88.013601, 41.278143], [-88.013332, 41.263799], [-88.013331, 41.26377], [-88.012715, 41.249176], [-88.012198, 41.234574], [-88.011879, 41.220286], [-88.011569, 41.205596], [-88.031206, 41.205258], [-88.04992, 41.205038], [-88.070145, 41.204709], [-88.089586, 41.204426], [-88.10846, 41.204014], [-88.128357, 41.203765], [-88.147632, 41.203548], [-88.166806, 41.203111], [-88.186057, 41.202812], [-88.205305, 41.202414], [-88.224094, 41.201983], [-88.243674, 41.201619], [-88.243985, 41.216021], [-88.244349, 41.230871], [-88.245329, 41.245222], [-88.246233, 41.259542], [-88.246582, 41.274234], [-88.247084, 41.288575], [-88.247497, 41.302994], [-88.247807, 41.317668], [-88.248074, 41.332116], [-88.248715, 41.34668], [-88.249047, 41.361373], [-88.249098, 41.375625], [-88.249575, 41.389765], [-88.250204, 41.404276], [-88.250698, 41.418758], [-88.251168, 41.433761], [-88.251527, 41.448096], [-88.251596, 41.450963], [-88.252163, 41.46276], [-88.252681, 41.47726], [-88.252682, 41.477316], [-88.252685, 41.477354], [-88.25328, 41.491748], [-88.253282, 41.49179], [-88.253867, 41.506423], [-88.253868, 41.506452], [-88.254279, 41.520686], [-88.254287, 41.520945], [-88.254655, 41.535478], [-88.255247, 41.550097], [-88.255871, 41.564303], [-88.255873, 41.564339], [-88.256514, 41.578695], [-88.25653, 41.579044], [-88.256569, 41.57954], [-88.256573, 41.579623], [-88.257147, 41.592647], [-88.25719, 41.593649], [-88.257868, 41.607041], [-88.257889, 41.608111], [-88.258639, 41.621997], [-88.25863, 41.622518], [-88.25907, 41.636087], [-88.259673, 41.650611], [-88.260081, 41.665185], [-88.260456, 41.679743], [-88.2608, 41.694414], [-88.261025, 41.708782], [-88.261457, 41.724386]]]]}, "properties": {"name": "Will", "co_fips": 197, "cartodb_id": 4, "created_at": "2014-12-26T02:19:38Z", "updated_at": "2014-12-26T02:21:22Z"}}, {"type": "Feature", "geometry": {"type": "MultiPolygon", "coordinates": [[[[-88.707418, 42.493512], [-88.688087, 42.493957], [-88.688017, 42.493959], [-88.668438, 42.49441], [-88.668372, 42.494412], [-88.64841, 42.494821], [-88.633729, 42.494969], [-88.628879, 42.495006], [-88.628453, 42.495008], [-88.625019, 42.495038], [-88.609179, 42.495004], [-88.609019, 42.495004], [-88.589317, 42.494961], [-88.589192, 42.494961], [-88.569664, 42.494916], [-88.56947, 42.494915], [-88.55015, 42.494869], [-88.550076, 42.494868], [-88.530638, 42.494817], [-88.530456, 42.494817], [-88.510804, 42.494762], [-88.510743, 42.494763], [-88.491024, 42.494775], [-88.471559, 42.494756], [-88.452201, 42.49462], [-88.432154, 42.494492], [-88.412862, 42.49465], [-88.393912, 42.494597], [-88.374558, 42.494636], [-88.355237, 42.494518], [-88.335388, 42.494543], [-88.315777, 42.494587], [-88.296602, 42.49461], [-88.276999, 42.494642], [-88.257333, 42.494651], [-88.237876, 42.49483], [-88.218801, 42.495018], [-88.199558, 42.495087], [-88.199288, 42.488029], [-88.198998, 42.473613], [-88.198727, 42.459114], [-88.198675, 42.444658], [-88.198626, 42.430056], [-88.198581, 42.415473], [-88.199114, 42.401298], [-88.198874, 42.386599], [-88.198723, 42.372268], [-88.198627, 42.357617], [-88.19864, 42.343097], [-88.198934, 42.328599], [-88.199144, 42.314055], [-88.199035, 42.299437], [-88.198848, 42.28491], [-88.198692, 42.270448], [-88.198919, 42.255779], [-88.198834, 42.241535], [-88.199222, 42.226939], [-88.199437, 42.212485], [-88.199525, 42.197671], [-88.199825, 42.183223], [-88.200066, 42.168729], [-88.199844, 42.154253], [-88.219196, 42.154208], [-88.219371, 42.154208], [-88.238571, 42.15424], [-88.238647, 42.154238], [-88.257689, 42.154081], [-88.277208, 42.153889], [-88.296598, 42.153845], [-88.316317, 42.153765], [-88.335893, 42.153878], [-88.354534, 42.153977], [-88.354534, 42.153851], [-88.373822, 42.153917], [-88.393084, 42.153834], [-88.393316, 42.153833], [-88.393615, 42.153844], [-88.413001, 42.153826], [-88.432408, 42.153796], [-88.451704, 42.15377], [-88.471956, 42.153465], [-88.491416, 42.153385], [-88.500088, 42.153546], [-88.500087, 42.153633], [-88.505937, 42.153654], [-88.510847, 42.153676], [-88.510898, 42.153677], [-88.510973, 42.153676], [-88.511024, 42.153676], [-88.511093, 42.153674], [-88.511167, 42.153673], [-88.530265, 42.153676], [-88.530366, 42.153676], [-88.530522, 42.153677], [-88.530709, 42.153676], [-88.549712, 42.153674], [-88.549792, 42.153674], [-88.549842, 42.153673], [-88.54992, 42.153674], [-88.549968, 42.153673], [-88.550016, 42.153672], [-88.564156, 42.153642], [-88.56917, 42.153631], [-88.569214, 42.153631], [-88.569266, 42.153631], [-88.569327, 42.15363], [-88.569371, 42.153631], [-88.569423, 42.153631], [-88.569518, 42.153629], [-88.588413, 42.153646], [-88.588582, 42.153648], [-88.600604, 42.153584], [-88.602853, 42.153571], [-88.607756, 42.153545], [-88.607842, 42.153546], [-88.607921, 42.153547], [-88.608027, 42.153545], [-88.625019, 42.153374], [-88.627396, 42.153388], [-88.627513, 42.153388], [-88.627567, 42.153413], [-88.627769, 42.153388], [-88.646837, 42.15349], [-88.646957, 42.153489], [-88.666339, 42.153419], [-88.666396, 42.153418], [-88.666559, 42.153418], [-88.685913, 42.153481], [-88.685961, 42.153482], [-88.686041, 42.153482], [-88.705585, 42.153541], [-88.705587, 42.153902], [-88.705611, 42.167989], [-88.70561, 42.168026], [-88.705611, 42.168143], [-88.70561, 42.168361], [-88.705566, 42.177637], [-88.705542, 42.182489], [-88.705542, 42.182538], [-88.705542, 42.182707], [-88.705543, 42.182741], [-88.705527, 42.191101], [-88.705519, 42.1949], [-88.705514, 42.197071], [-88.705513, 42.197158], [-88.705513, 42.197303], [-88.70543, 42.210379], [-88.705387, 42.211565], [-88.705414, 42.211609], [-88.705415, 42.21169], [-88.705415, 42.211825], [-88.705385, 42.22622], [-88.705386, 42.226314], [-88.705409, 42.230058], [-88.705468, 42.240805], [-88.70547, 42.240951], [-88.705482, 42.25003], [-88.705459, 42.255142], [-88.705456, 42.255383], [-88.705573, 42.269815], [-88.705655, 42.284098], [-88.705654, 42.284179], [-88.705655, 42.284233], [-88.705635, 42.298734], [-88.705637, 42.298772], [-88.705671, 42.313197], [-88.705671, 42.313352], [-88.705671, 42.31341], [-88.705542, 42.327791], [-88.705542, 42.327873], [-88.705574, 42.342288], [-88.705574, 42.342355], [-88.705574, 42.342393], [-88.705576, 42.342461], [-88.705668, 42.356885], [-88.705668, 42.356931], [-88.705668, 42.35702], [-88.705669, 42.357117], [-88.705667, 42.371177], [-88.705666, 42.371319], [-88.705665, 42.371512], [-88.705663, 42.375031], [-88.705774, 42.38581], [-88.705775, 42.385857], [-88.705774, 42.385964], [-88.705775, 42.386007], [-88.705719, 42.400072], [-88.705719, 42.400113], [-88.705718, 42.400178], [-88.70575, 42.400476], [-88.705753, 42.400506], [-88.705725, 42.400533], [-88.705871, 42.414991], [-88.706125, 42.429407], [-88.706129, 42.429556], [-88.706159, 42.434871], [-88.706206, 42.443879], [-88.706207, 42.444006], [-88.706434, 42.458328], [-88.706435, 42.458369], [-88.706435, 42.458472], [-88.706443, 42.458643], [-88.706893, 42.472815], [-88.706923, 42.472985], [-88.706926, 42.473055], [-88.70693, 42.473161], [-88.707306, 42.487401], [-88.707309, 42.487499], [-88.707311, 42.487624], [-88.707314, 42.487695], [-88.707402, 42.493468], [-88.707418, 42.493512]]]]}, "properties": {"name": "McHenry", "co_fips": 111, "cartodb_id": 19, "created_at": "2014-12-26T02:19:38Z", "updated_at": "2014-12-26T02:21:22Z"}}, {"type": "Feature", "geometry": {"type": "MultiPolygon", "coordinates": [[[[-88.262727, 41.986368], [-88.24265, 41.986699], [-88.242545, 41.986702], [-88.24234, 41.986704], [-88.223146, 41.987021], [-88.222935, 41.987052], [-88.203629, 41.987327], [-88.184133, 41.987645], [-88.183752, 41.987646], [-88.164531, 41.987751], [-88.144928, 41.988213], [-88.129886, 41.988769], [-88.129043, 41.988801], [-88.11031, 41.989725], [-88.109677, 41.989752], [-88.090761, 41.990569], [-88.090073, 41.9906], [-88.070386, 41.991349], [-88.050977, 41.991842], [-88.031261, 41.99251], [-88.017948, 41.992437], [-87.998279, 41.99259], [-87.978947, 41.992811], [-87.97886, 41.992812], [-87.978758, 41.992812], [-87.959281, 41.993087], [-87.940054, 41.99343], [-87.920526, 41.993997], [-87.920459, 41.979416], [-87.92031, 41.965036], [-87.920312, 41.964897], [-87.920318, 41.950496], [-87.920318, 41.95042], [-87.920318, 41.950242], [-87.920274, 41.935801], [-87.920504, 41.921308], [-87.920118, 41.906808], [-87.920587, 41.892714], [-87.920634, 41.891244], [-87.920744, 41.87683], [-87.920232, 41.865525], [-87.920114, 41.86218], [-87.91958, 41.847726], [-87.918903, 41.8331], [-87.918283, 41.818542], [-87.917633, 41.803987], [-87.917, 41.789391], [-87.916596, 41.77477], [-87.916022, 41.760182], [-87.915358, 41.745676], [-87.91486, 41.731009], [-87.914569, 41.723757], [-87.914285, 41.716781], [-87.914587, 41.716755], [-87.914969, 41.716664], [-87.915337, 41.716573], [-87.915644, 41.716477], [-87.915683, 41.716476], [-87.916189, 41.716336], [-87.916477, 41.716228], [-87.91672, 41.716164], [-87.916961, 41.71616], [-87.917196, 41.716184], [-87.917554, 41.716247], [-87.917722, 41.716308], [-87.91794, 41.716403], [-87.917991, 41.716427], [-87.918122, 41.716487], [-87.918371, 41.716516], [-87.918679, 41.716491], [-87.918935, 41.716448], [-87.919288, 41.71645], [-87.919801, 41.71647], [-87.920035, 41.716483], [-87.920452, 41.71648], [-87.920842, 41.7164], [-87.92098, 41.716363], [-87.921121, 41.716325], [-87.921372, 41.716234], [-87.921652, 41.716087], [-87.922096, 41.715683], [-87.922452, 41.715394], [-87.922771, 41.715062], [-87.923009, 41.714821], [-87.923225, 41.714542], [-87.923447, 41.714318], [-87.923596, 41.714111], [-87.923753, 41.713908], [-87.923961, 41.713695], [-87.924161, 41.713515], [-87.924339, 41.713318], [-87.924517, 41.713166], [-87.924651, 41.713068], [-87.924805, 41.712976], [-87.925056, 41.712845], [-87.925255, 41.712781], [-87.925512, 41.712721], [-87.925834, 41.712724], [-87.926046, 41.712731], [-87.926383, 41.712749], [-87.926661, 41.712779], [-87.926978, 41.712682], [-87.927104, 41.712573], [-87.927252, 41.712464], [-87.927696, 41.712132], [-87.927821, 41.712023], [-87.928021, 41.711859], [-87.92817, 41.711756], [-87.928413, 41.711576], [-87.928547, 41.711429], [-87.928784, 41.711254], [-87.928998, 41.711074], [-87.929198, 41.710921], [-87.929368, 41.710796], [-87.929524, 41.710654], [-87.929643, 41.71054], [-87.929998, 41.710267], [-87.930367, 41.710044], [-87.930581, 41.70993], [-87.930766, 41.709822], [-87.931053, 41.709703], [-87.931258, 41.709632], [-87.931553, 41.709525], [-87.931921, 41.709411], [-87.932163, 41.709314], [-87.932377, 41.709233], [-87.932649, 41.709142], [-87.932914, 41.709067], [-87.933216, 41.708969], [-87.93353, 41.708834], [-87.933554, 41.708823], [-87.93379, 41.70872], [-87.93396, 41.708655], [-87.934137, 41.70853], [-87.934292, 41.708421], [-87.934477, 41.70828], [-87.934618, 41.708148], [-87.934738, 41.708001], [-87.934798, 41.707825], [-87.934873, 41.707683], [-87.934985, 41.707536], [-87.935136, 41.707179], [-87.935263, 41.70696], [-87.935412, 41.706791], [-87.935568, 41.706605], [-87.935666, 41.706435], [-87.93577, 41.706282], [-87.935867, 41.706118], [-87.935971, 41.705998], [-87.936149, 41.705812], [-87.936342, 41.705621], [-87.93652, 41.705468], [-87.936786, 41.705278], [-87.937008, 41.70512], [-87.937288, 41.704984], [-87.937568, 41.70486], [-87.937892, 41.704779], [-87.938098, 41.704709], [-87.938289, 41.704622], [-87.938546, 41.704508], [-87.938746, 41.704427], [-87.938923, 41.70433], [-87.939041, 41.704215], [-87.93919, 41.704078], [-87.939374, 41.703953], [-87.939566, 41.703872], [-87.939736, 41.703785], [-87.939927, 41.703709], [-87.940214, 41.703634], [-87.940471, 41.703576], [-87.940823, 41.703501], [-87.941089, 41.703354], [-87.941251, 41.703267], [-87.941472, 41.70317], [-87.941641, 41.703106], [-87.941869, 41.703013], [-87.942119, 41.702944], [-87.942264, 41.701392], [-87.942483, 41.699049], [-87.942837, 41.698853], [-87.943242, 41.698631], [-87.943598, 41.698336], [-87.943937, 41.698113], [-87.944285, 41.697857], [-87.944714, 41.697541], [-87.945106, 41.697291], [-87.945578, 41.696964], [-87.946184, 41.696578], [-87.946583, 41.6963], [-87.946855, 41.696131], [-87.947152, 41.695924], [-87.94752, 41.69569], [-87.947757, 41.695549], [-87.948192, 41.695299], [-87.948532, 41.695071], [-87.948717, 41.694923], [-87.949167, 41.694663], [-87.949829, 41.694408], [-87.950402, 41.694302], [-87.950718, 41.694183], [-87.951057, 41.694042], [-87.951365, 41.693929], [-87.951659, 41.693865], [-87.95202, 41.693741], [-87.952241, 41.693682], [-87.952416, 41.693657], [-87.952688, 41.693618], [-87.953143, 41.693578], [-87.953532, 41.693509], [-87.95398, 41.693445], [-87.954367, 41.69347], [-87.954786, 41.693385], [-87.955088, 41.693288], [-87.955462, 41.693213], [-87.955676, 41.693083], [-87.955831, 41.692996], [-87.956245, 41.692674], [-87.956497, 41.692451], [-87.956822, 41.692167], [-87.957096, 41.691932], [-87.957407, 41.691681], [-87.957681, 41.691441], [-87.957836, 41.691327], [-87.958109, 41.69118], [-87.958427, 41.691006], [-87.958684, 41.690881], [-87.95906, 41.690703], [-87.959479, 41.69053], [-87.959759, 41.690427], [-87.960164, 41.690237], [-87.960725, 41.689905], [-87.961432, 41.689596], [-87.961941, 41.689292], [-87.962325, 41.689003], [-87.962922, 41.688716], [-87.963549, 41.688319], [-87.964382, 41.687911], [-87.96498, 41.68753], [-87.965806, 41.687085], [-87.966308, 41.686753], [-87.966588, 41.68659], [-87.967063, 41.686648], [-87.967554, 41.68664], [-87.967972, 41.686631], [-87.968608, 41.686668], [-87.969223, 41.686744], [-87.969596, 41.686801], [-87.969931, 41.686875], [-87.970231, 41.686959], [-87.970501, 41.687065], [-87.970748, 41.687182], [-87.970945, 41.687266], [-87.97112, 41.687322], [-87.97131, 41.687367], [-87.971567, 41.68739], [-87.971701, 41.687399], [-87.971939, 41.687415], [-87.972262, 41.687318], [-87.972696, 41.6872], [-87.973145, 41.687092], [-87.973387, 41.686973], [-87.973668, 41.686849], [-87.973947, 41.686752], [-87.974299, 41.686644], [-87.974689, 41.686547], [-87.974939, 41.686472], [-87.97524, 41.686435], [-87.97543, 41.686447], [-87.975715, 41.686488], [-87.975963, 41.686549], [-87.976234, 41.686589], [-87.976635, 41.686752], [-87.977029, 41.686908], [-87.977357, 41.686998], [-87.977613, 41.68706], [-87.977875, 41.68715], [-87.978212, 41.687228], [-87.978437, 41.68729], [-87.978686, 41.687336], [-87.978971, 41.687349], [-87.979287, 41.687323], [-87.979734, 41.687254], [-87.979992, 41.687184], [-87.980286, 41.687104], [-87.980601, 41.687018], [-87.980933, 41.686855], [-87.981139, 41.686785], [-87.981337, 41.68672], [-87.981639, 41.686623], [-87.981955, 41.686526], [-87.98216, 41.686451], [-87.982294, 41.686347], [-87.982471, 41.686211], [-87.982686, 41.685915], [-87.98596, 41.685957], [-87.989821, 41.685865], [-87.991145, 41.685838], [-87.993887, 41.68578], [-88.000182, 41.685617], [-88.010666, 41.685466], [-88.029222, 41.685249], [-88.029226, 41.699847], [-88.029832, 41.71422], [-88.030289, 41.728825], [-88.049491, 41.728367], [-88.049954, 41.728373], [-88.068948, 41.727975], [-88.082927, 41.72766], [-88.088104, 41.727521], [-88.107516, 41.72699], [-88.126805, 41.726637], [-88.148001, 41.726114], [-88.167313, 41.725699], [-88.186703, 41.725478], [-88.206177, 41.725215], [-88.225526, 41.725001], [-88.245, 41.724733], [-88.261464, 41.724593], [-88.261856, 41.73918], [-88.262088, 41.753729], [-88.262343, 41.768275], [-88.262343, 41.782901], [-88.26271, 41.797223], [-88.262713, 41.797374], [-88.262716, 41.797514], [-88.262859, 41.81207], [-88.262919, 41.82642], [-88.262637, 41.840792], [-88.262632, 41.84094], [-88.262633, 41.841103], [-88.262655, 41.855522], [-88.262655, 41.869926], [-88.262454, 41.884601], [-88.262282, 41.899149], [-88.262433, 41.913717], [-88.262584, 41.928317], [-88.262744, 41.94258], [-88.262746, 41.942769], [-88.262745, 41.942938], [-88.262616, 41.957413], [-88.262656, 41.972048], [-88.262727, 41.986368]]]]}, "properties": {"name": "DuPage", "co_fips": 43, "cartodb_id": 72, "created_at": "2014-12-26T02:19:38Z", "updated_at": "2014-12-26T02:21:22Z"}}, {"type": "Feature", "geometry": {"type": "MultiPolygon", "coordinates": [[[[-88.588582, 42.153648], [-88.588413, 42.153646], [-88.569518, 42.153629], [-88.569423, 42.153631], [-88.569371, 42.153631], [-88.569327, 42.15363], [-88.569266, 42.153631], [-88.569214, 42.153631], [-88.56917, 42.153631], [-88.564156, 42.153642], [-88.550016, 42.153672], [-88.549968, 42.153673], [-88.54992, 42.153674], [-88.549842, 42.153673], [-88.549792, 42.153674], [-88.549712, 42.153674], [-88.530709, 42.153676], [-88.530522, 42.153677], [-88.530366, 42.153676], [-88.530265, 42.153676], [-88.511167, 42.153673], [-88.511093, 42.153674], [-88.511024, 42.153676], [-88.510973, 42.153676], [-88.510898, 42.153677], [-88.510847, 42.153676], [-88.505937, 42.153654], [-88.500087, 42.153633], [-88.500088, 42.153546], [-88.491416, 42.153385], [-88.471956, 42.153465], [-88.451704, 42.15377], [-88.432408, 42.153796], [-88.413001, 42.153826], [-88.393615, 42.153844], [-88.393316, 42.153833], [-88.393084, 42.153834], [-88.373822, 42.153917], [-88.354534, 42.153851], [-88.354534, 42.153977], [-88.335893, 42.153878], [-88.316317, 42.153765], [-88.296598, 42.153845], [-88.277208, 42.153889], [-88.257689, 42.154081], [-88.238647, 42.154238], [-88.238571, 42.15424], [-88.238643, 42.13945], [-88.238584, 42.124961], [-88.238357, 42.124824], [-88.238408, 42.110308], [-88.238303, 42.095901], [-88.238275, 42.081291], [-88.23808, 42.066948], [-88.242514, 42.066831], [-88.25766, 42.067068], [-88.263635, 42.06716], [-88.263556, 42.059628], [-88.263553, 42.059477], [-88.263551, 42.059296], [-88.263338, 42.04472], [-88.263278, 42.030318], [-88.263277, 42.030216], [-88.263277, 42.030106], [-88.263255, 42.015682], [-88.26312, 42.001092], [-88.262727, 41.986368], [-88.262656, 41.972048], [-88.262616, 41.957413], [-88.262745, 41.942938], [-88.262746, 41.942769], [-88.262744, 41.94258], [-88.262584, 41.928317], [-88.262433, 41.913717], [-88.262282, 41.899149], [-88.262454, 41.884601], [-88.262655, 41.869926], [-88.262655, 41.855522], [-88.262633, 41.841103], [-88.262632, 41.84094], [-88.262637, 41.840792], [-88.262919, 41.82642], [-88.262859, 41.81207], [-88.262716, 41.797514], [-88.262713, 41.797374], [-88.26271, 41.797223], [-88.262343, 41.782901], [-88.262343, 41.768275], [-88.262088, 41.753729], [-88.261856, 41.73918], [-88.261464, 41.724593], [-88.261457, 41.724386], [-88.280697, 41.724089], [-88.300258, 41.723897], [-88.319, 41.723613], [-88.319345, 41.723607], [-88.319905, 41.723614], [-88.338839, 41.723208], [-88.339482, 41.723268], [-88.358828, 41.722896], [-88.365311, 41.722804], [-88.371265, 41.722671], [-88.375184, 41.722666], [-88.390453, 41.722458], [-88.390516, 41.722457], [-88.394481, 41.722415], [-88.409868, 41.722252], [-88.409932, 41.722253], [-88.41398, 41.722215], [-88.429305, 41.722024], [-88.429371, 41.722023], [-88.433393, 41.721982], [-88.44886, 41.721731], [-88.448932, 41.721729], [-88.452992, 41.721691], [-88.468341, 41.721475], [-88.468412, 41.721474], [-88.472414, 41.721431], [-88.488789, 41.721086], [-88.489562, 41.721062], [-88.500059, 41.720951], [-88.508234, 41.720864], [-88.508709, 41.720855], [-88.508967, 41.720852], [-88.518152, 41.720714], [-88.518999, 41.7207], [-88.527496, 41.720574], [-88.527623, 41.72058], [-88.528341, 41.720564], [-88.538222, 41.72035], [-88.543697, 41.720232], [-88.546974, 41.720161], [-88.547788, 41.720144], [-88.547865, 41.720143], [-88.565695, 41.719955], [-88.566201, 41.719951], [-88.566264, 41.719949], [-88.566634, 41.719941], [-88.566728, 41.71994], [-88.58563, 41.719795], [-88.585676, 41.719791], [-88.586379, 41.719778], [-88.602009, 41.719577], [-88.60201, 41.719647], [-88.602044, 41.731463], [-88.602051, 41.734112], [-88.602034, 41.738649], [-88.601995, 41.748571], [-88.601994, 41.748644], [-88.601987, 41.750032], [-88.602102, 41.762982], [-88.602101, 41.763053], [-88.602103, 41.763408], [-88.602105, 41.763571], [-88.602146, 41.777505], [-88.602148, 41.777887], [-88.602148, 41.778084], [-88.602295, 41.79204], [-88.602286, 41.792618], [-88.6023, 41.792665], [-88.602305, 41.793226], [-88.602395, 41.806564], [-88.602393, 41.806942], [-88.602304, 41.82112], [-88.602161, 41.821121], [-88.602081, 41.821122], [-88.602086, 41.82115], [-88.602087, 41.821647], [-88.60209, 41.835535], [-88.60209, 41.835716], [-88.602089, 41.835772], [-88.602085, 41.8361], [-88.601889, 41.85008], [-88.601885, 41.850251], [-88.601884, 41.850488], [-88.601769, 41.86466], [-88.601742, 41.864841], [-88.601743, 41.86493], [-88.601641, 41.875069], [-88.601532, 41.879354], [-88.601532, 41.879512], [-88.601531, 41.879841], [-88.601434, 41.893957], [-88.601333, 41.908409], [-88.601332, 41.908514], [-88.601333, 41.90871], [-88.601374, 41.92303], [-88.601374, 41.923162], [-88.601375, 41.923226], [-88.601422, 41.937574], [-88.601416, 41.937607], [-88.601416, 41.937722], [-88.601418, 41.937761], [-88.601348, 41.952126], [-88.601349, 41.952302], [-88.60135, 41.952372], [-88.601422, 41.96677], [-88.601419, 41.967004], [-88.601417, 41.967128], [-88.601416, 41.967219], [-88.601229, 41.981344], [-88.601232, 41.981501], [-88.60137, 41.993457], [-88.601399, 41.996038], [-88.601399, 41.996095], [-88.601399, 41.996142], [-88.601381, 42.000003], [-88.601427, 42.006131], [-88.601458, 42.010521], [-88.601458, 42.010555], [-88.601458, 42.010672], [-88.601565, 42.02492], [-88.601566, 42.025111], [-88.601566, 42.02523], [-88.601643, 42.039392], [-88.601644, 42.039744], [-88.601644, 42.039775], [-88.601647, 42.039852], [-88.601805, 42.054406], [-88.601806, 42.054451], [-88.601935, 42.06643], [-88.601954, 42.066469], [-88.597289, 42.066457], [-88.588301, 42.066436], [-88.588289, 42.066557], [-88.58823, 42.080994], [-88.588231, 42.081023], [-88.588232, 42.081075], [-88.588264, 42.095498], [-88.588269, 42.09572], [-88.588249, 42.110008], [-88.588206, 42.115346], [-88.588145, 42.122825], [-88.588158, 42.124448], [-88.588158, 42.124586], [-88.588162, 42.1247], [-88.588382, 42.133637], [-88.58851, 42.138891], [-88.588511, 42.138927], [-88.588512, 42.139026], [-88.588582, 42.153648]]]]}, "properties": {"name": "Kane", "co_fips": 89, "cartodb_id": 76, "created_at": "2014-12-26T02:19:38Z", "updated_at": "2014-12-26T02:21:22Z"}}, {"type": "Feature", "geometry": {"type": "MultiPolygon", "coordinates": [[[[-88.602009, 41.719577], [-88.586379, 41.719778], [-88.585676, 41.719791], [-88.58563, 41.719795], [-88.566728, 41.71994], [-88.566634, 41.719941], [-88.566264, 41.719949], [-88.566201, 41.719951], [-88.565695, 41.719955], [-88.547865, 41.720143], [-88.547788, 41.720144], [-88.546974, 41.720161], [-88.543697, 41.720232], [-88.538222, 41.72035], [-88.528341, 41.720564], [-88.527623, 41.72058], [-88.527496, 41.720574], [-88.518999, 41.7207], [-88.518152, 41.720714], [-88.508967, 41.720852], [-88.508709, 41.720855], [-88.508234, 41.720864], [-88.500059, 41.720951], [-88.489562, 41.721062], [-88.488789, 41.721086], [-88.472414, 41.721431], [-88.468412, 41.721474], [-88.468341, 41.721475], [-88.452992, 41.721691], [-88.448932, 41.721729], [-88.44886, 41.721731], [-88.433393, 41.721982], [-88.429371, 41.722023], [-88.429305, 41.722024], [-88.41398, 41.722215], [-88.409932, 41.722253], [-88.409868, 41.722252], [-88.394481, 41.722415], [-88.390516, 41.722457], [-88.390453, 41.722458], [-88.375184, 41.722666], [-88.371265, 41.722671], [-88.365311, 41.722804], [-88.358828, 41.722896], [-88.339482, 41.723268], [-88.338839, 41.723208], [-88.319905, 41.723614], [-88.319345, 41.723607], [-88.319, 41.723613], [-88.300258, 41.723897], [-88.280697, 41.724089], [-88.261457, 41.724386], [-88.261025, 41.708782], [-88.2608, 41.694414], [-88.260456, 41.679743], [-88.260081, 41.665185], [-88.259673, 41.650611], [-88.25907, 41.636087], [-88.25863, 41.622518], [-88.258639, 41.621997], [-88.257889, 41.608111], [-88.257868, 41.607041], [-88.25719, 41.593649], [-88.257147, 41.592647], [-88.256573, 41.579623], [-88.256569, 41.57954], [-88.25653, 41.579044], [-88.256514, 41.578695], [-88.255873, 41.564339], [-88.255871, 41.564303], [-88.255247, 41.550097], [-88.254655, 41.535478], [-88.254287, 41.520945], [-88.254279, 41.520686], [-88.253868, 41.506452], [-88.253867, 41.506423], [-88.253282, 41.49179], [-88.25328, 41.491748], [-88.252685, 41.477354], [-88.252682, 41.477316], [-88.252681, 41.47726], [-88.252163, 41.46276], [-88.271488, 41.462144], [-88.290965, 41.461798], [-88.310205, 41.461437], [-88.329665, 41.46101], [-88.349026, 41.460741], [-88.365243, 41.460475], [-88.384622, 41.460052], [-88.404018, 41.459667], [-88.423403, 41.459251], [-88.423691, 41.459244], [-88.442697, 41.45881], [-88.461968, 41.458359], [-88.481706, 41.457808], [-88.500079, 41.457734], [-88.501164, 41.457754], [-88.501362, 41.457751], [-88.501994, 41.457748], [-88.520573, 41.457692], [-88.539667, 41.457586], [-88.539852, 41.457586], [-88.539956, 41.457586], [-88.555155, 41.457505], [-88.558858, 41.457485], [-88.559034, 41.45748], [-88.559249, 41.457477], [-88.559592, 41.457473], [-88.566168, 41.457408], [-88.578508, 41.457287], [-88.578548, 41.457286], [-88.578655, 41.457284], [-88.595738, 41.457097], [-88.596085, 41.457093], [-88.596284, 41.466382], [-88.596392, 41.471441], [-88.596393, 41.471496], [-88.596395, 41.471583], [-88.596836, 41.484956], [-88.596858, 41.485564], [-88.596876, 41.486121], [-88.596878, 41.486209], [-88.596945, 41.487956], [-88.597405, 41.500055], [-88.597421, 41.500396], [-88.597428, 41.500566], [-88.597438, 41.500786], [-88.59804, 41.515022], [-88.598048, 41.515175], [-88.598054, 41.515274], [-88.598177, 41.518191], [-88.598656, 41.529579], [-88.598657, 41.52962], [-88.598662, 41.529752], [-88.598665, 41.529811], [-88.599235, 41.544196], [-88.59924, 41.544276], [-88.599804, 41.55857], [-88.599812, 41.558781], [-88.600098, 41.571192], [-88.600144, 41.5732], [-88.600143, 41.573249], [-88.600306, 41.578817], [-88.600562, 41.587686], [-88.600565, 41.587787], [-88.600569, 41.587863], [-88.60067, 41.590423], [-88.601134, 41.602317], [-88.601657, 41.616815], [-88.601658, 41.616876], [-88.602034, 41.62502], [-88.60221, 41.631215], [-88.602218, 41.631464], [-88.602257, 41.63733], [-88.602311, 41.6458], [-88.602313, 41.645913], [-88.602436, 41.660304], [-88.602441, 41.66045], [-88.602745, 41.674854], [-88.602746, 41.675009], [-88.602998, 41.68941], [-88.603, 41.689559], [-88.603316, 41.703827], [-88.60332, 41.70408], [-88.603466, 41.709658], [-88.603722, 41.719537], [-88.603492, 41.719541], [-88.602009, 41.719577]]]]}, "properties": {"name": "Kendall", "co_fips": 93, "cartodb_id": 77, "created_at": "2014-12-26T02:19:38Z", "updated_at": "2014-12-26T02:21:22Z"}}]}